{
  "type": "FeatureCollection",
  "features": [
    {
      "type": "Feature",
      "properties": {
        "norad_id": 26766,
        "name": "INTELSAT 10 (IS-10)",
        "group": "intelsat",
        "lat": 6.71130812917465,
        "lon": 111.47970630983977,
        "alt_km": 36157.54899100853,
        "timestamp": "2025-12-22T18:58:53.088201+00:00",
        "meta_object_name": "INTELSAT 10 (IS-10)",
        "meta_object_id": "2001-019A",
        "meta_epoch": "2025-12-21T17:53:39.051168",
        "meta_mean_motion": 0.99073842,
        "meta_eccentricity": 0.00077363,
        "meta_inclination": 8.6495,
        "meta_ra_of_asc_node": 61.0661,
        "meta_arg_of_pericenter": 228.4282,
        "meta_mean_anomaly": 169.4863,
        "meta_ephemeris_type": 0,
        "meta_classification_type": "U",
        "meta_norad_cat_id": 26766,
        "meta_element_set_no": 999,
        "meta_rev_at_epoch": 4382,
        "meta_bstar": 0,
        "meta_mean_motion_dot": -7.1e-07,
        "meta_mean_motion_ddot": 0,
        "tle_line1": "1 26766U 01019A   25355.74559087 -.00000071  00000+0  00000+0 0  9990",
        "tle_line2": "2 26766   8.6495  61.0661 0007736 228.4282 169.4863  0.99073842 43828"
      },
      "geometry": {
        "type": "Point",
        "coordinates": [
          111.47970630983977,
          6.71130812917465
        ]
      }
    },
    {
      "type": "Feature",
      "properties": {
        "norad_id": 26900,
        "name": "INTELSAT 902 (IS-902)",
        "group": "intelsat",
        "lat": -5.4198638234161605,
        "lon": -33.88922553611595,
        "alt_km": 35778.96372667819,
        "timestamp": "2025-12-22T18:58:53.088226+00:00",
        "meta_object_name": "INTELSAT 902 (IS-902)",
        "meta_object_id": "2001-039A",
        "meta_epoch": "2025-12-15T13:09:02.081664",
        "meta_mean_motion": 1.0027087,
        "meta_eccentricity": 0.00045028,
        "meta_inclination": 5.6536,
        "meta_ra_of_asc_node": 74.0372,
        "meta_arg_of_pericenter": 189.6359,
        "meta_mean_anomaly": 327.9329,
        "meta_ephemeris_type": 0,
        "meta_classification_type": "U",
        "meta_norad_cat_id": 26900,
        "meta_element_set_no": 999,
        "meta_rev_at_epoch": 8885,
        "meta_bstar": 0,
        "meta_mean_motion_dot": -2.65e-06,
        "meta_mean_motion_ddot": 0,
        "tle_line1": "1 26900U 01039A   25349.54794076 -.00000265  00000+0  00000+0 0  9997",
        "tle_line2": "2 26900   5.6536  74.0372 0004502 189.6359 327.9329  1.00270870 88858"
      },
      "geometry": {
        "type": "Point",
        "coordinates": [
          -33.88922553611595,
          -5.4198638234161605
        ]
      }
    },
    {
      "type": "Feature",
      "properties": {
        "norad_id": 27380,
        "name": "INTELSAT 904 (IS-904)",
        "group": "intelsat",
        "lat": -6.480322478397227,
        "lon": -15.17043863940875,
        "alt_km": 35779.97336900101,
        "timestamp": "2025-12-22T18:58:53.088243+00:00",
        "meta_object_name": "INTELSAT 904 (IS-904)",
        "meta_object_id": "2002-007A",
        "meta_epoch": "2025-12-22T04:54:51.714144",
        "meta_mean_motion": 1.00270344,
        "meta_eccentricity": 0.00019271,
        "meta_inclination": 6.4767,
        "meta_ra_of_asc_node": 71.3235,
        "meta_arg_of_pericenter": 249.6,
        "meta_mean_anomaly": 172.2947,
        "meta_ephemeris_type": 0,
        "meta_classification_type": "U",
        "meta_norad_cat_id": 27380,
        "meta_element_set_no": 999,
        "meta_rev_at_epoch": 4999,
        "meta_bstar": 0,
        "meta_mean_motion_dot": -2.08e-06,
        "meta_mean_motion_ddot": 0,
        "tle_line1": "1 27380U 02007A   25356.20476521 -.00000208  00000+0  00000+0 0  9996",
        "tle_line2": "2 27380   6.4767  71.3235 0001927 249.6000 172.2947  1.00270344 49997"
      },
      "geometry": {
        "type": "Point",
        "coordinates": [
          -15.17043863940875,
          -6.480322478397227
        ]
      }
    },
    {
      "type": "Feature",
      "properties": {
        "norad_id": 27426,
        "name": "DIRECTV 5 (TEMPO 1)",
        "group": "intelsat",
        "lat": -0.6878406052624522,
        "lon": -93.84158593822083,
        "alt_km": 35772.99371520485,
        "timestamp": "2025-12-22T18:58:53.088256+00:00",
        "meta_object_name": "DIRECTV 5 (TEMPO 1)",
        "meta_object_id": "2002-023A",
        "meta_epoch": "2025-12-22T05:55:23.259936",
        "meta_mean_motion": 1.00271768,
        "meta_eccentricity": 0.00031763,
        "meta_inclination": 4.4248,
        "meta_ra_of_asc_node": 77.5416,
        "meta_arg_of_pericenter": 200.3147,
        "meta_mean_anomaly": 151.9259,
        "meta_ephemeris_type": 0,
        "meta_classification_type": "U",
        "meta_norad_cat_id": 27426,
        "meta_element_set_no": 999,
        "meta_rev_at_epoch": 8634,
        "meta_bstar": 0,
        "meta_mean_motion_dot": -3.8e-07,
        "meta_mean_motion_ddot": 0,
        "tle_line1": "1 27426U 02023A   25356.24679699 -.00000038  00000+0  00000+0 0  9991",
        "tle_line2": "2 27426   4.4248  77.5416 0003176 200.3147 151.9259  1.00271768 86344"
      },
      "geometry": {
        "type": "Point",
        "coordinates": [
          -93.84158593822083,
          -0.6878406052624522
        ]
      }
    },
    {
      "type": "Feature",
      "properties": {
        "norad_id": 27438,
        "name": "INTELSAT 905 (IS-905)",
        "group": "intelsat",
        "lat": 1.3858060820061304,
        "lon": -120.83182021434479,
        "alt_km": 35776.42915786032,
        "timestamp": "2025-12-22T18:58:53.088269+00:00",
        "meta_object_name": "INTELSAT 905 (IS-905)",
        "meta_object_id": "2002-027A",
        "meta_epoch": "2025-12-22T06:22:38.830080",
        "meta_mean_motion": 1.00273014,
        "meta_eccentricity": 0.00027058,
        "meta_inclination": 6.3079,
        "meta_ra_of_asc_node": 71.9462,
        "meta_arg_of_pericenter": 204.7267,
        "meta_mean_anomaly": 132.8591,
        "meta_ephemeris_type": 0,
        "meta_classification_type": "U",
        "meta_norad_cat_id": 27438,
        "meta_element_set_no": 999,
        "meta_rev_at_epoch": 4958,
        "meta_bstar": 0,
        "meta_mean_motion_dot": 1.12e-06,
        "meta_mean_motion_ddot": 0,
        "tle_line1": "1 27438U 02027A   25356.26572720  .00000112  00000+0  00000+0 0  9999",
        "tle_line2": "2 27438   6.3079  71.9462 0002705 204.7267 132.8591  1.00273014 49585"
      },
      "geometry": {
        "type": "Point",
        "coordinates": [
          -120.83182021434479,
          1.3858060820061304
        ]
      }
    },
    {
      "type": "Feature",
      "properties": {
        "norad_id": 27445,
        "name": "GALAXY 3C (G-3C)",
        "group": "intelsat",
        "lat": -1.205684130724398,
        "lon": -78.56896766366958,
        "alt_km": 35788.74285581227,
        "timestamp": "2025-12-22T18:58:53.088281+00:00",
        "meta_object_name": "GALAXY 3C (G-3C)",
        "meta_object_id": "2002-030A",
        "meta_epoch": "2025-12-22T04:09:14.897376",
        "meta_mean_motion": 1.00271755,
        "meta_eccentricity": 0.00010947,
        "meta_inclination": 3.2858,
        "meta_ra_of_asc_node": 80.4066,
        "meta_arg_of_pericenter": 78.8021,
        "meta_mean_anomaly": 259.2282,
        "meta_ephemeris_type": 0,
        "meta_classification_type": "U",
        "meta_norad_cat_id": 27445,
        "meta_element_set_no": 999,
        "meta_rev_at_epoch": 4471,
        "meta_bstar": 0,
        "meta_mean_motion_dot": -1.33e-06,
        "meta_mean_motion_ddot": 0,
        "tle_line1": "1 27445U 02030A   25356.17308909 -.00000133  00000+0  00000+0 0  9991",
        "tle_line2": "2 27445   3.2858  80.4066 0001094  78.8021 259.2282  1.00271755 44718"
      },
      "geometry": {
        "type": "Point",
        "coordinates": [
          -78.56896766366958,
          -1.205684130724398
        ]
      }
    },
    {
      "type": "Feature",
      "properties": {
        "norad_id": 27513,
        "name": "INTELSAT 906 (IS-906)",
        "group": "intelsat",
        "lat": 0.5201900048071398,
        "lon": 80.4431694446255,
        "alt_km": 35811.44423688852,
        "timestamp": "2025-12-22T18:58:53.088293+00:00",
        "meta_object_name": "INTELSAT 906 (IS-906)",
        "meta_object_id": "2002-041A",
        "meta_epoch": "2025-12-21T20:19:33.988224",
        "meta_mean_motion": 1.00273099,
        "meta_eccentricity": 0.00063058,
        "meta_inclination": 5.3527,
        "meta_ra_of_asc_node": 75.1232,
        "meta_arg_of_pericenter": 200.0655,
        "meta_mean_anomaly": 184.499,
        "meta_ephemeris_type": 0,
        "meta_classification_type": "U",
        "meta_norad_cat_id": 27513,
        "meta_element_set_no": 999,
        "meta_rev_at_epoch": 8525,
        "meta_bstar": 0,
        "meta_mean_motion_dot": 3.1e-07,
        "meta_mean_motion_ddot": 0,
        "tle_line1": "1 27513U 02041A   25355.84692116  .00000031  00000+0  00000+0 0  9994",
        "tle_line2": "2 27513   5.3527  75.1232 0006305 200.0655 184.4990  1.00273099 85250"
      },
      "geometry": {
        "type": "Point",
        "coordinates": [
          80.4431694446255,
          0.5201900048071398
        ]
      }
    }
  ]
}